[{"OBJECT_NAME":"STARLINK-3058","OBJECT_ID":"2021-082J","EPOCH":"2026-03-09T21:56:31.840224","MEAN_MOTION":14.98327791,"ECCENTRICITY":0.00020205,"INCLINATION":69.9986,"RA_OF_ASC_NODE":293.8975,"ARG_OF_PERICENTER":250.3449,"MEAN_ANOMALY":109.7493,"EPHEMERIS_TYPE":0,"CLASSIFICATION_TYPE":"U","NORAD_CAT_ID":49138,"ELEMENT_SET_NO":999,"REV_AT_EPOCH":24601,"BSTAR":5.8290098e-5,"MEAN_MOTION_DOT":6.03e-6,"MEAN_MOTION_DDOT":0},{"OBJECT_NAME":"CZ-2C DEB","OBJECT_ID":"2014-066E","EPOCH":"2026-03-09T21:55:34.712544","MEAN_MOTION":14.96320405,"ECCENTRICITY":0.00459749,"INCLINATION":97.9301,"RA_OF_ASC_NODE":44.7594,"ARG_OF_PERICENTER":158.4857,"MEAN_ANOMALY":201.831,"EPHEMERIS_TYPE":0,"CLASSIFICATION_TYPE":"U","NORAD_CAT_ID":40290,"ELEMENT_SET_NO":999,"REV_AT_EPOCH":60512,"BSTAR":0.0018751551,"MEAN_MOTION_DOT":0.00021654,"MEAN_MOTION_DDOT":0}]
